CCSDS_OMM_VERS = 2.0
CREATION_DATE  = 
ORIGINATOR     = 

OBJECT_NAME    = STARLINK-35490
OBJECT_ID      = 2025-243AD
CENTER_NAME    = EARTH
REF_FRAME      = TEME
TIME_SYSTEM    = UTC
MEAN_ELEMENT_THEORY = SGP/SGP4

EPOCH          = 2025-11-18T12:00:02.000160
MEAN_MOTION    = 15.56418691
ECCENTRICITY   = .0001294
INCLINATION    = 53.1602
RA_OF_ASC_NODE = 42.7290
ARG_OF_PERICENTER = 52.0551
MEAN_ANOMALY   = 29.1229

EPHEMERIS_TYPE = 0
CLASSIFICATION_TYPE = U
NORAD_CAT_ID   = 66204
ELEMENT_SET_NO = 999
REV_AT_EPOCH   = 463
BSTAR          = -.32185E-1
MEAN_MOTION_DOT = -.2064863E-1
MEAN_MOTION_DDOT = 0

CCSDS_OMM_VERS = 2.0
CREATION_DATE  = 
ORIGINATOR     = 

OBJECT_NAME    = STARLINK-35748
OBJECT_ID      = 2025-244A
CENTER_NAME    = EARTH
REF_FRAME      = TEME
TIME_SYSTEM    = UTC
MEAN_ELEMENT_THEORY = SGP/SGP4

EPOCH          = 2025-11-18T12:00:02.000160
MEAN_MOTION    = 15.45593482
ECCENTRICITY   = .0001557
INCLINATION    = 53.1603
RA_OF_ASC_NODE = 30.4233
ARG_OF_PERICENTER = 69.1447
MEAN_ANOMALY   = 120.8190

EPHEMERIS_TYPE = 0
CLASSIFICATION_TYPE = U
NORAD_CAT_ID   = 66206
ELEMENT_SET_NO = 999
REV_AT_EPOCH   = 436
BSTAR          = -.47622E-1
MEAN_MOTION_DOT = -.20686E-1
MEAN_MOTION_DDOT = 0

CCSDS_OMM_VERS = 2.0
CREATION_DATE  = 
ORIGINATOR     = 

OBJECT_NAME    = STARLINK-35747
OBJECT_ID      = 2025-244B
CENTER_NAME    = EARTH
REF_FRAME      = TEME
TIME_SYSTEM    = UTC
MEAN_ELEMENT_THEORY = SGP/SGP4

EPOCH          = 2025-11-18T10:51:52.621632
MEAN_MOTION    = 15.74243415
ECCENTRICITY   = .0000966
INCLINATION    = 53.1604
RA_OF_ASC_NODE = 29.7693
ARG_OF_PERICENTER = 118.4915
MEAN_ANOMALY   = 241.6202

EPHEMERIS_TYPE = 0
CLASSIFICATION_TYPE = U
NORAD_CAT_ID   = 66207
ELEMENT_SET_NO = 999
REV_AT_EPOCH   = 458
BSTAR          = .10255E-2
MEAN_MOTION_DOT = .152663E-2
MEAN_MOTION_DDOT = 0

CCSDS_OMM_VERS = 2.0
CREATION_DATE  = 
ORIGINATOR     = 

OBJECT_NAME    = STARLINK-35751
OBJECT_ID      = 2025-244C
CENTER_NAME    = EARTH
REF_FRAME      = TEME
TIME_SYSTEM    = UTC
MEAN_ELEMENT_THEORY = SGP/SGP4

EPOCH          = 2025-11-18T12:00:02.000160
MEAN_MOTION    = 15.45340287
ECCENTRICITY   = .0001487
INCLINATION    = 53.1606
RA_OF_ASC_NODE = 30.4167
ARG_OF_PERICENTER = 77.9652
MEAN_ANOMALY   = 115.0127

EPHEMERIS_TYPE = 0
CLASSIFICATION_TYPE = U
NORAD_CAT_ID   = 66208
ELEMENT_SET_NO = 999
REV_AT_EPOCH   = 447
BSTAR          = -.4761E-1
MEAN_MOTION_DOT = -.2052072E-1
MEAN_MOTION_DDOT = 0

CCSDS_OMM_VERS = 2.0
CREATION_DATE  = 
ORIGINATOR     = 

OBJECT_NAME    = STARLINK-35750
OBJECT_ID      = 2025-244D
CENTER_NAME    = EARTH
REF_FRAME      = TEME
TIME_SYSTEM    = UTC
MEAN_ELEMENT_THEORY = SGP/SGP4

EPOCH          = 2025-11-18T12:00:02.000160
MEAN_MOTION    = 15.48184669
ECCENTRICITY   = .000152
INCLINATION    = 53.1606
RA_OF_ASC_NODE = 30.3964
ARG_OF_PERICENTER = 93.5925
MEAN_ANOMALY   = 109.0044

EPHEMERIS_TYPE = 0
CLASSIFICATION_TYPE = U
NORAD_CAT_ID   = 66209
ELEMENT_SET_NO = 999
REV_AT_EPOCH   = 444
BSTAR          = -.43817E-1
MEAN_MOTION_DOT = -.2081954E-1
MEAN_MOTION_DDOT = 0

CCSDS_OMM_VERS = 2.0
CREATION_DATE  = 
ORIGINATOR     = 

OBJECT_NAME    = STARLINK-35740
OBJECT_ID      = 2025-244E
CENTER_NAME    = EARTH
REF_FRAME      = TEME
TIME_SYSTEM    = UTC
MEAN_ELEMENT_THEORY = SGP/SGP4

EPOCH          = 2025-11-18T12:00:02.000160
MEAN_MOTION    = 15.48201287
ECCENTRICITY   = .0001532
INCLINATION    = 53.1606
RA_OF_ASC_NODE = 30.4008
ARG_OF_PERICENTER = 90.5732
MEAN_ANOMALY   = 110.1145

EPHEMERIS_TYPE = 0
CLASSIFICATION_TYPE = U
NORAD_CAT_ID   = 66210
ELEMENT_SET_NO = 999
REV_AT_EPOCH   = 431
BSTAR          = -.43965E-1
MEAN_MOTION_DOT = -.2089279E-1
MEAN_MOTION_DDOT = 0

CCSDS_OMM_VERS = 2.0
CREATION_DATE  = 
ORIGINATOR     = 

OBJECT_NAME    = STARLINK-35723
OBJECT_ID      = 2025-244F
CENTER_NAME    = EARTH
REF_FRAME      = TEME
TIME_SYSTEM    = UTC
MEAN_ELEMENT_THEORY = SGP/SGP4

EPOCH          = 2025-11-18T12:00:02.000160
MEAN_MOTION    = 15.49415301
ECCENTRICITY   = .000129
INCLINATION    = 53.1605
RA_OF_ASC_NODE = 30.3911
ARG_OF_PERICENTER = 70.3834
MEAN_ANOMALY   = 134.6256

EPHEMERIS_TYPE = 0
CLASSIFICATION_TYPE = U
NORAD_CAT_ID   = 66211
ELEMENT_SET_NO = 999
REV_AT_EPOCH   = 436
BSTAR          = -.47432E-2
MEAN_MOTION_DOT = -.256737E-2
MEAN_MOTION_DDOT = 0

CCSDS_OMM_VERS = 2.0
CREATION_DATE  = 
ORIGINATOR     = 

OBJECT_NAME    = STARLINK-35710
OBJECT_ID      = 2025-244G
CENTER_NAME    = EARTH
REF_FRAME      = TEME
TIME_SYSTEM    = UTC
MEAN_ELEMENT_THEORY = SGP/SGP4

EPOCH          = 2025-11-18T12:00:02.000160
MEAN_MOTION    = 15.49336004
ECCENTRICITY   = .0001405
INCLINATION    = 53.1606
RA_OF_ASC_NODE = 30.3830
ARG_OF_PERICENTER = 77.3151
MEAN_ANOMALY   = 131.5559

EPHEMERIS_TYPE = 0
CLASSIFICATION_TYPE = U
NORAD_CAT_ID   = 66212
ELEMENT_SET_NO = 999
REV_AT_EPOCH   = 444
BSTAR          = -.14368E-2
MEAN_MOTION_DOT = -.79627E-3
MEAN_MOTION_DDOT = 0

CCSDS_OMM_VERS = 2.0
CREATION_DATE  = 
ORIGINATOR     = 

OBJECT_NAME    = STARLINK-34204
OBJECT_ID      = 2025-244H
CENTER_NAME    = EARTH
REF_FRAME      = TEME
TIME_SYSTEM    = UTC
MEAN_ELEMENT_THEORY = SGP/SGP4

EPOCH          = 2025-11-18T12:00:02.000160
MEAN_MOTION    = 15.49413548
ECCENTRICITY   = .0001249
INCLINATION    = 53.1605
RA_OF_ASC_NODE = 30.3875
ARG_OF_PERICENTER = 67.2939
MEAN_ANOMALY   = 139.6340

EPHEMERIS_TYPE = 0
CLASSIFICATION_TYPE = U
NORAD_CAT_ID   = 66213
ELEMENT_SET_NO = 999
REV_AT_EPOCH   = 463
BSTAR          = -.48237E-2
MEAN_MOTION_DOT = -.26093E-2
MEAN_MOTION_DDOT = 0

CCSDS_OMM_VERS = 2.0
CREATION_DATE  = 
ORIGINATOR     = 

OBJECT_NAME    = STARLINK-35714
OBJECT_ID      = 2025-244J
CENTER_NAME    = EARTH
REF_FRAME      = TEME
TIME_SYSTEM    = UTC
MEAN_ELEMENT_THEORY = SGP/SGP4

EPOCH          = 2025-11-18T12:00:02.000160
MEAN_MOTION    = 15.49332124
ECCENTRICITY   = .0001406
INCLINATION    = 53.1606
RA_OF_ASC_NODE = 30.3671
ARG_OF_PERICENTER = 73.5498
MEAN_ANOMALY   = 142.9877

EPHEMERIS_TYPE = 0
CLASSIFICATION_TYPE = U
NORAD_CAT_ID   = 66214
ELEMENT_SET_NO = 999
REV_AT_EPOCH   = 431
BSTAR          = -.12917E-2
MEAN_MOTION_DOT = -.71689E-3
MEAN_MOTION_DDOT = 0

CCSDS_OMM_VERS = 2.0
CREATION_DATE  = 
ORIGINATOR     = 

OBJECT_NAME    = STARLINK-35712
OBJECT_ID      = 2025-244K
CENTER_NAME    = EARTH
REF_FRAME      = TEME
TIME_SYSTEM    = UTC
MEAN_ELEMENT_THEORY = SGP/SGP4

EPOCH          = 2025-11-18T12:00:02.000160
MEAN_MOTION    = 15.49335435
ECCENTRICITY   = .0001186
INCLINATION    = 53.1606
RA_OF_ASC_NODE = 30.3591
ARG_OF_PERICENTER = 68.3649
MEAN_ANOMALY   = 152.0047

EPHEMERIS_TYPE = 0
CLASSIFICATION_TYPE = U
NORAD_CAT_ID   = 66215
ELEMENT_SET_NO = 999
REV_AT_EPOCH   = 431
BSTAR          = -.13512E-2
MEAN_MOTION_DOT = -.74952E-3
MEAN_MOTION_DDOT = 0

CCSDS_OMM_VERS = 2.0
CREATION_DATE  = 
ORIGINATOR     = 

OBJECT_NAME    = STARLINK-35709
OBJECT_ID      = 2025-244L
CENTER_NAME    = EARTH
REF_FRAME      = TEME
TIME_SYSTEM    = UTC
MEAN_ELEMENT_THEORY = SGP/SGP4

EPOCH          = 2025-11-18T12:00:02.000160
MEAN_MOTION    = 15.49328193
ECCENTRICITY   = .0001172
INCLINATION    = 53.1605
RA_OF_ASC_NODE = 30.3794
ARG_OF_PERICENTER = 65.0262
MEAN_ANOMALY   = 145.7655

EPHEMERIS_TYPE = 0
CLASSIFICATION_TYPE = U
NORAD_CAT_ID   = 66216
ELEMENT_SET_NO = 999
REV_AT_EPOCH   = 431
BSTAR          = -.1205E-2
MEAN_MOTION_DOT = -.66941E-3
MEAN_MOTION_DDOT = 0

CCSDS_OMM_VERS = 2.0
CREATION_DATE  = 
ORIGINATOR     = 

OBJECT_NAME    = STARLINK-35700
OBJECT_ID      = 2025-244M
CENTER_NAME    = EARTH
REF_FRAME      = TEME
TIME_SYSTEM    = UTC
MEAN_ELEMENT_THEORY = SGP/SGP4

EPOCH          = 2025-11-18T12:00:02.000160
MEAN_MOTION    = 15.49330096
ECCENTRICITY   = .0001155
INCLINATION    = 53.1607
RA_OF_ASC_NODE = 30.3753
ARG_OF_PERICENTER = 68.0707
MEAN_ANOMALY   = 144.6324

EPHEMERIS_TYPE = 0
CLASSIFICATION_TYPE = U
NORAD_CAT_ID   = 66217
ELEMENT_SET_NO = 999
REV_AT_EPOCH   = 431
BSTAR          = -.12128E-2
MEAN_MOTION_DOT = -.6737E-3
MEAN_MOTION_DDOT = 0

CCSDS_OMM_VERS = 2.0
CREATION_DATE  = 
ORIGINATOR     = 

OBJECT_NAME    = STARLINK-35722
OBJECT_ID      = 2025-244N
CENTER_NAME    = EARTH
REF_FRAME      = TEME
TIME_SYSTEM    = UTC
MEAN_ELEMENT_THEORY = SGP/SGP4

EPOCH          = 2025-11-18T12:00:02.000160
MEAN_MOTION    = 15.49335074
ECCENTRICITY   = .0001243
INCLINATION    = 53.1606
RA_OF_ASC_NODE = 30.3713
ARG_OF_PERICENTER = 66.6597
MEAN_ANOMALY   = 147.9603

EPHEMERIS_TYPE = 0
CLASSIFICATION_TYPE = U
NORAD_CAT_ID   = 66218
ELEMENT_SET_NO = 999
REV_AT_EPOCH   = 431
BSTAR          = -.13383E-2
MEAN_MOTION_DOT = -.74246E-3
MEAN_MOTION_DDOT = 0

CCSDS_OMM_VERS = 2.0
CREATION_DATE  = 
ORIGINATOR     = 

OBJECT_NAME    = STARLINK-35737
OBJECT_ID      = 2025-244P
CENTER_NAME    = EARTH
REF_FRAME      = TEME
TIME_SYSTEM    = UTC
MEAN_ELEMENT_THEORY = SGP/SGP4

EPOCH          = 2025-11-18T12:00:02.000160
MEAN_MOTION    = 15.49332423
ECCENTRICITY   = .0001226
INCLINATION    = 53.1606
RA_OF_ASC_NODE = 30.3637
ARG_OF_PERICENTER = 67.1872
MEAN_ANOMALY   = 151.2665

EPHEMERIS_TYPE = 0
CLASSIFICATION_TYPE = U
NORAD_CAT_ID   = 66219
ELEMENT_SET_NO = 999
REV_AT_EPOCH   = 447
BSTAR          = -.12596E-2
MEAN_MOTION_DOT = -.69936E-3
MEAN_MOTION_DDOT = 0

